ADRAS-J                 
1 58992U 24034A   24267.45604468  .00007565  00000+0  67627-3 0  9997
2 58992  98.2238 245.0795 0045191  85.5849 275.0531 14.95410404 32547
